NORAD_CAT_ID,OBJECT_NAME,OBJECT_TYPE,EPOCH,MEAN_MOTION,ECCENTRICITY,INCLINATION,RA_OF_ASC_NODE,ARG_OF_PERICENTER,MEAN_ANOMALY,BSTAR,MEAN_MOTION_DOT,MEAN_MOTION_DDOT,TLE_LINE0,TLE_LINE1,TLE_LINE2,SEMIMAJOR_AXIS,PERIOD,APOGEE,PERIGEE,DECAYED
55920.0,STARLINK-5862,PAYLOAD,2023-05-19 00:56:10,15.69927794,0.0003309,70.0,6.0008,260.6493,99.4329,1.1075e-05,1.119e-05,0.0,0 STARLINK-5862,1 55920U 23037G   23139.03901447  .00001119  00000-0  11075-4 0  9992,2 55920  70.0000   6.0008 0003309 260.6493  99.4329 15.69927794 10308,6737.241,91.724,361.335,356.876,0.0
55920.0,STARLINK-5862,PAYLOAD,2023-05-19 14:41:57,15.69921069,0.0003213,70.0003,4.3887,259.8188,100.2645,4.2486e-06,2.98e-06,0.0,0 STARLINK-5862,1 55920U 23037G   23139.61246938  .00000298  00000-0  42486-5 0  9991,2 55920  70.0003   4.3887 0003213 259.8188 100.2645 15.69921069 10392,6737.26,91.724,361.29,356.96,0.0
55920.0,STARLINK-5862,PAYLOAD,2023-05-20 16:41:43,15.69939291,0.0003452,70.0021,1.346,263.114,96.9663,2.2773e-05,2.528e-05,0.0,0 STARLINK-5862,1 55920U 23037G   23140.69564157  .00002528  00000-0  22773-4 0  9991,2 55920  70.0021   1.3460 0003452 263.1140  96.9663 15.69939291 10563,6737.208,91.723,361.398,356.747,0.0
55920.0,STARLINK-5862,PAYLOAD,2023-05-20 21:16:59,15.69936098,0.0002463,70.0025,0.8078,254.4698,105.6226,2.9867e-05,3.382e-05,0.0,0 STARLINK-5862,1 55920U 23037G   23140.88679413  .00003382  00000-0  29867-4 0  9994,2 55920  70.0025   0.8078 0002463 254.4698 105.6226 15.69936098 10259,6737.217,91.723,360.741,357.422,0.0
55920.0,STARLINK-5862,PAYLOAD,2023-05-21 00:20:31,15.69894871,0.0002506,70.0009,0.4469,263.108,96.9831,-4.7887e-05,-5.958e-05,0.0,0 STARLINK-5862,1 55920U 23037G   23141.01424842 -.00005958  00000-0 -47887-4 0  9999,2 55920  70.0009   0.4469 0002506 263.1080  96.9831 15.69894871 10617,6737.335,91.726,360.888,357.511,0.0
55920.0,STARLINK-5862,PAYLOAD,2023-05-21 14:06:16,15.69907181,0.0003076,70.0001,358.834,263.7351,96.3494,-2.415e-05,-3.113e-05,0.0,0 STARLINK-5862,1 55920U 23037G   23141.58769659 -.00003113  00000-0 -24150-4 0  9998,2 55920  70.0001 358.8340 0003076 263.7351  96.3494 15.69907181 10367,6737.3,91.725,361.237,357.092,0.0
55920.0,STARLINK-5862,PAYLOAD,2023-05-21 15:38:02,15.69908515,0.0002561,70.0009,358.6592,251.8799,108.2118,-9.4526e-06,-1.348e-05,0.0,0 STARLINK-5862,1 55920U 23037G   23141.65141365 -.00001348  00000-0 -94526-5 0  9997,2 55920  70.0009 358.6592 0002561 251.8799 108.2118 15.69908515 10711,6737.296,91.725,360.886,357.435,0.0
55920.0,STARLINK-5862,PAYLOAD,2023-05-21 18:41:31,15.69924689,0.0003465,69.9992,358.2954,267.3695,92.7104,8.5911e-06,8.2e-06,0.0,0 STARLINK-5862,1 55920U 23037G   23141.77883938  .00000820  00000-0  85911-5 0  9999,2 55920  69.9992 358.2954 0003465 267.3695  92.7104 15.69924689 10394,6737.249,91.724,361.449,356.78,0.0
55920.0,STARLINK-5862,PAYLOAD,2023-05-21 23:16:46,15.69938538,0.0003487,69.9998,357.7588,272.443,87.6367,3.765e-05,4.319e-05,0.0,0 STARLINK-5862,1 55920U 23037G   23141.96998211  .00004319  00000-0  37650-4 0  9994,2 55920  69.9998 357.7588 0003487 272.4430  87.6367 15.69938538 10768,6737.21,91.723,361.424,356.726,0.0
55920.0,STARLINK-5862,PAYLOAD,2023-05-22 20:41:18,15.6992441,0.0003747,69.999,355.2505,269.0908,90.9858,1.2778e-05,1.324e-05,0.0,0 STARLINK-5862,1 55920U 23037G   23142.86202004  .00001324  00000-0  12778-4 0  9999,2 55920  69.9990 355.2505 0003747 269.0908  90.9858 15.69924410 10905,6737.25,91.724,361.64,356.591,0.0
55920.0,STARLINK-5862,PAYLOAD,2023-05-23 16:34:05,15.69925713,0.0003882,69.9972,352.9218,269.2408,90.8343,8.3759e-06,7.94e-06,0.0,0 STARLINK-5862,1 55920U 23037G   23143.69033846  .00000794  00000-0  83759-5 0  9995,2 55920  69.9972 352.9218 0003882 269.2408  90.8343 15.69925713 10698,6737.247,91.724,361.727,356.496,0.0
55920.0,STARLINK-5862,PAYLOAD,2023-05-24 00:12:50,15.69926499,0.0003549,69.9953,352.0223,271.3181,88.7608,5.6142e-06,4.62e-06,0.0,0 STARLINK-5862,1 55920U 23037G   23144.00892072  .00000462  00000-0  56142-5 0  9993,2 55920  69.9953 352.0223 0003549 271.3181  88.7608 15.69926499 11082,6737.244,91.724,361.5,356.718,0.0
55920.0,STARLINK-5862,PAYLOAD,2023-05-24 15:30:22,15.69916623,0.0004059,69.9969,350.2345,270.9426,89.1305,1.9062e-07,-1.9e-06,0.0,0 STARLINK-5862,1 55920U 23037G   23144.64609426 -.00000190  00000-0  19062-6 0  9992,2 55920  69.9969 350.2345 0004059 270.9426  89.1305 15.69916623 11186,6737.273,91.725,361.872,356.403,0.0
55920.0,STARLINK-5862,PAYLOAD,2023-05-25 14:26:39,15.69920333,0.0003577,69.9968,347.5478,267.751,92.3276,-1.1048e-07,-2.26e-06,0.0,0 STARLINK-5862,1 55920U 23037G   23145.60184439 -.00000226  00000-0 -11048-6 0  9998,2 55920  69.9968 347.5478 0003577 267.7510  92.3276 15.69920333 10997,6737.262,91.724,361.537,356.717,0.0
55920.0,STARLINK-5862,PAYLOAD,2023-05-25 15:58:24,15.69921572,0.0003372,69.997,347.3683,264.1337,95.9475,3.8018e-06,2.44e-06,0.0,0 STARLINK-5862,1 55920U 23037G   23145.66555935  .00000244  00000-0  38018-5 0  9990,2 55920  69.9970 347.3683 0003372 264.1337  95.9475 15.69921572 11343,6737.258,91.724,361.395,356.852,0.0
55920.0,STARLINK-5862,PAYLOAD,2023-05-25 22:05:24,15.69931739,0.0003392,69.9966,346.6508,268.0123,92.0685,1.2573e-05,1.3e-05,0.0,0 STARLINK-5862,1 55920U 23037G   23145.92041781  .00001300  00000-0  12573-4 0  9999,2 55920  69.9966 346.6508 0003392 268.0123  92.0685 15.69931739 11048,6737.229,91.724,361.38,356.809,0.0
55920.0,STARLINK-5862,PAYLOAD,2023-05-25 23:37:09,15.69927393,0.0003171,69.9969,346.4718,264.7066,95.3768,7.8455e-06,7.31e-06,0.0,0 STARLINK-5862,1 55920U 23037G   23145.98413870  .00000731  00000-0  78455-5 0  9996,2 55920  69.9969 346.4718 0003171 264.7066  95.3768 15.69927393 11393,6737.242,91.724,361.243,356.97,0.0
55920.0,STARLINK-5862,PAYLOAD,2023-05-26 13:22:55,15.69927181,0.0003346,69.9972,344.8604,275.8901,84.1914,1.3633e-06,-4.9e-07,0.0,0 STARLINK-5862,1 55920U 23037G   23146.55759208 -.00000049  00000-0  13633-5 0  9998,2 55920  69.9972 344.8604 0003346 275.8901  84.1914 15.69927181 11145,6737.242,91.724,361.362,356.853,0.0
55920.0,STARLINK-5862,PAYLOAD,2023-05-26 21:01:41,15.69926104,0.0003553,69.9966,343.9638,272.8255,87.2534,1.1279e-06,-7.7e-07,0.0,0 STARLINK-5862,1 55920U 23037G   23146.87617510 -.00000077  00000-0  11279-5 0  9997,2 55920  69.9966 343.9638 0003553 272.8255  87.2534 15.69926104 11195,6737.245,91.724,361.504,356.717,0.0
55920.0,STARLINK-5862,PAYLOAD,2023-05-27 06:12:12,15.69921002,0.000343,69.9968,342.8887,272.4554,87.6249,6.9083e-06,6.18e-06,0.0,0 STARLINK-5862,1 55920U 23037G   23147.25847728  .00000618  00000-0  69083-5 0  9992,2 55920  69.9968 342.8887 0003430 272.4554  87.6249 15.69921002 11596,6737.26,91.724,361.436,356.814,0.0
55920.0,STARLINK-5862,PAYLOAD,2023-05-27 21:29:43,15.69924008,0.0003214,69.9973,341.0974,268.3704,91.7124,7.296e-06,6.65e-06,0.0,0 STARLINK-5862,1 55920U 23037G   23147.89564322  .00000665  00000-0  72960-5 0  9998,2 55920  69.9973 341.0974 0003214 268.3704  91.7124 15.69924008 11352,6737.251,91.724,361.282,356.951,0.0
55920.0,STARLINK-5862,PAYLOAD,2023-05-27 23:01:28,15.69922275,0.000332,69.9969,340.918,269.9622,90.1194,6.1549e-06,5.27e-06,0.0,0 STARLINK-5862,1 55920U 23037G   23147.95936130  .00000527  00000-0  61549-5 0  9993,2 55920  69.9969 340.9180 0003320 269.9622  90.1194 15.69922275 11363,6737.256,91.724,361.358,356.885,0.0
55920.0,STARLINK-5862,PAYLOAD,2023-05-28 20:26:00,15.69928905,0.0003365,69.9968,338.41,270.0014,90.0796,1.0849e-05,1.092e-05,0.0,0 STARLINK-5862,1 55920U 23037G   23148.85138931  .00001092  00000-0  10849-4 0  9990,2 55920  69.9968 338.4100 0003365 270.0014  90.0796 15.69928905 11849,6737.237,91.724,361.369,356.835,0.0
55920.0,STARLINK-5862,PAYLOAD,2023-05-29 05:36:31,15.69912206,0.0003463,69.997,337.3353,270.6544,89.4255,-5.2384e-06,-8.42e-06,0.0,0 STARLINK-5862,1 55920U 23037G   23149.23370350 -.00000842  00000-0 -52384-5 0  9991,2 55920  69.9970 337.3353 0003463 270.6544  89.4255 15.69912206 11909,6737.285,91.725,361.483,356.817,0.0
55920.0,STARLINK-5862,PAYLOAD,2023-05-29 14:47:02,15.69913857,0.000341,69.9972,336.2607,269.8556,90.2248,-3.6483e-06,-6.51e-06,0.0,0 STARLINK-5862,1 55920U 23037G   23149.61600479 -.00000651  00000-0 -36483-5 0  9991,2 55920  69.9972 336.2607 0003410 269.8556  90.2248 15.69913857 11620,6737.28,91.725,361.443,356.848,0.0
55920.0,STARLINK-5862,PAYLOAD,2023-05-29 20:54:02,15.69924072,0.0003143,69.9972,335.5426,258.8248,101.2594,4.0843e-06,2.78e-06,0.0,0 STARLINK-5862,1 55920U 23037G   23149.87086349  .00000278  00000-0  40843-5 0  9991,2 55920  69.9972 335.5426 0003143 258.8248 101.2594 15.69924072 11662,6737.251,91.724,361.234,356.999,0.0
55920.0,STARLINK-5862,PAYLOAD,2023-05-29 22:25:47,15.69926628,0.0003221,69.9978,335.3649,263.8798,96.2031,7.4283e-06,6.81e-06,0.0,0 STARLINK-5862,1 55920U 23037G   23149.93457848  .00000681  00000-0  74283-5 0  9997,2 55920  69.9978 335.3649 0003221 263.8798  96.2031 15.69926628 12014,6737.244,91.724,361.279,356.939,0.0
55920.0,STARLINK-5862,PAYLOAD,2023-05-30 06:04:32,15.69925818,0.0003996,69.9966,334.468,265.7962,94.2777,9.5508e-06,9.36e-06,0.0,0 STARLINK-5862,1 55920U 23037G   23150.25315902  .00000936  00000-0  95508-5 0  9994,2 55920  69.9966 334.4680 0003996 265.7962  94.2777 15.69925818 11721,6737.246,91.724,361.803,356.419,0.0
55920.0,STARLINK-5862,PAYLOAD,2023-05-30 21:22:04,15.69927866,0.0003688,69.9972,332.6773,265.835,94.2424,7.6699e-06,7.09e-06,0.0,0 STARLINK-5862,1 55920U 23037G   23150.89032516  .00000709  00000-0  76699-5 0  9999,2 55920  69.9972 332.6773 0003688 265.8350  94.2424 15.69927866 11826,6737.24,91.724,361.59,356.621,0.0
55920.0,STARLINK-5862,PAYLOAD,2023-05-31 05:00:49,15.69945921,0.0003399,69.9989,331.782,264.9371,95.1437,-4.9146e-05,-6.123e-05,0.0,0 STARLINK-5862,1 55920U 23037G   23151.20890895 -.00006123  00000-0 -49146-4 0  9991,2 55920  69.9989 331.7820 0003399 264.9371  95.1437 15.69945921 12219,6737.189,91.723,361.344,356.764,0.0
